CCSDS_OMM_VERS = 2.0
CREATION_DATE  = 
ORIGINATOR     = 

OBJECT_NAME    = STARLINK-35496
OBJECT_ID      = 2025-237A
CENTER_NAME    = EARTH
REF_FRAME      = TEME
TIME_SYSTEM    = UTC
MEAN_ELEMENT_THEORY = SGP/SGP4

EPOCH          = 2025-11-20T08:00:01.999872
MEAN_MOTION    = 15.39638720
ECCENTRICITY   = .00007683
INCLINATION    = 53.1591
RA_OF_ASC_NODE = 193.0546
ARG_OF_PERICENTER = 166.4743
MEAN_ANOMALY   = 74.3191

EPHEMERIS_TYPE = 0
CLASSIFICATION_TYPE = U
NORAD_CAT_ID   = 66114
ELEMENT_SET_NO = 999
REV_AT_EPOCH   = 587
BSTAR          = .30409241E-3
MEAN_MOTION_DOT = .1179E-3
MEAN_MOTION_DDOT = 0

CCSDS_OMM_VERS = 2.0
CREATION_DATE  = 
ORIGINATOR     = 

OBJECT_NAME    = STARLINK-35428
OBJECT_ID      = 2025-237B
CENTER_NAME    = EARTH
REF_FRAME      = TEME
TIME_SYSTEM    = UTC
MEAN_ELEMENT_THEORY = SGP/SGP4

EPOCH          = 2025-11-20T00:00:02.999808
MEAN_MOTION    = 15.39589967
ECCENTRICITY   = .00012873
INCLINATION    = 53.1598
RA_OF_ASC_NODE = 194.7792
ARG_OF_PERICENTER = 89.7336
MEAN_ANOMALY   = 25.3832

EPHEMERIS_TYPE = 0
CLASSIFICATION_TYPE = U
NORAD_CAT_ID   = 66115
ELEMENT_SET_NO = 999
REV_AT_EPOCH   = 582
BSTAR          = .11756744E-2
MEAN_MOTION_DOT = .46869E-3
MEAN_MOTION_DDOT = 0

CCSDS_OMM_VERS = 2.0
CREATION_DATE  = 
ORIGINATOR     = 

OBJECT_NAME    = STARLINK-35573
OBJECT_ID      = 2025-237C
CENTER_NAME    = EARTH
REF_FRAME      = TEME
TIME_SYSTEM    = UTC
MEAN_ELEMENT_THEORY = SGP/SGP4

EPOCH          = 2025-11-18T09:42:17.040960
MEAN_MOTION    = 15.49267070
ECCENTRICITY   = .00024307
INCLINATION    = 53.1611
RA_OF_ASC_NODE = 202.1102
ARG_OF_PERICENTER = 37.3147
MEAN_ANOMALY   = 322.8030

EPHEMERIS_TYPE = 0
CLASSIFICATION_TYPE = U
NORAD_CAT_ID   = 66116
ELEMENT_SET_NO = 999
REV_AT_EPOCH   = 549
BSTAR          = .18139223E-2
MEAN_MOTION_DOT = .10161E-2
MEAN_MOTION_DDOT = 0

CCSDS_OMM_VERS = 2.0
CREATION_DATE  = 
ORIGINATOR     = 

OBJECT_NAME    = STARLINK-35572
OBJECT_ID      = 2025-237D
CENTER_NAME    = EARTH
REF_FRAME      = TEME
TIME_SYSTEM    = UTC
MEAN_ELEMENT_THEORY = SGP/SGP4

EPOCH          = 2025-11-20T08:00:01.999872
MEAN_MOTION    = 15.39605256
ECCENTRICITY   = .0001154
INCLINATION    = 53.1598
RA_OF_ASC_NODE = 193.1563
ARG_OF_PERICENTER = 96.5283
MEAN_ANOMALY   = 92.8680

EPHEMERIS_TYPE = 0
CLASSIFICATION_TYPE = U
NORAD_CAT_ID   = 66117
ELEMENT_SET_NO = 999
REV_AT_EPOCH   = 587
BSTAR          = .24003891E-3
MEAN_MOTION_DOT = .9209E-4
MEAN_MOTION_DDOT = 0

CCSDS_OMM_VERS = 2.0
CREATION_DATE  = 
ORIGINATOR     = 

OBJECT_NAME    = STARLINK-35468
OBJECT_ID      = 2025-237E
CENTER_NAME    = EARTH
REF_FRAME      = TEME
TIME_SYSTEM    = UTC
MEAN_ELEMENT_THEORY = SGP/SGP4

EPOCH          = 2025-11-19T22:03:23.857632
MEAN_MOTION    = 15.39628601
ECCENTRICITY   = .00011151
INCLINATION    = 53.1603
RA_OF_ASC_NODE = 195.2109
ARG_OF_PERICENTER = 96.0958
MEAN_ANOMALY   = 264.0174

EPHEMERIS_TYPE = 0
CLASSIFICATION_TYPE = U
NORAD_CAT_ID   = 66118
ELEMENT_SET_NO = 999
REV_AT_EPOCH   = 572
BSTAR          = .95179346E-3
MEAN_MOTION_DOT = .37871E-3
MEAN_MOTION_DDOT = 0

CCSDS_OMM_VERS = 2.0
CREATION_DATE  = 
ORIGINATOR     = 

OBJECT_NAME    = STARLINK-35547
OBJECT_ID      = 2025-237F
CENTER_NAME    = EARTH
REF_FRAME      = TEME
TIME_SYSTEM    = UTC
MEAN_ELEMENT_THEORY = SGP/SGP4

EPOCH          = 2025-11-20T08:00:01.999872
MEAN_MOTION    = 15.39605851
ECCENTRICITY   = .00010348
INCLINATION    = 53.1588
RA_OF_ASC_NODE = 193.0015
ARG_OF_PERICENTER = 105.4604
MEAN_ANOMALY   = 161.1857

EPHEMERIS_TYPE = 0
CLASSIFICATION_TYPE = U
NORAD_CAT_ID   = 66119
ELEMENT_SET_NO = 999
REV_AT_EPOCH   = 587
BSTAR          = .29152952E-3
MEAN_MOTION_DOT = .11273E-3
MEAN_MOTION_DDOT = 0

CCSDS_OMM_VERS = 2.0
CREATION_DATE  = 
ORIGINATOR     = 

OBJECT_NAME    = STARLINK-35553
OBJECT_ID      = 2025-237G
CENTER_NAME    = EARTH
REF_FRAME      = TEME
TIME_SYSTEM    = UTC
MEAN_ELEMENT_THEORY = SGP/SGP4

EPOCH          = 2025-11-20T08:00:01.999872
MEAN_MOTION    = 15.39593937
ECCENTRICITY   = .00015671
INCLINATION    = 53.1596
RA_OF_ASC_NODE = 193.1050
ARG_OF_PERICENTER = 92.3479
MEAN_ANOMALY   = 122.7016

EPHEMERIS_TYPE = 0
CLASSIFICATION_TYPE = U
NORAD_CAT_ID   = 66120
ELEMENT_SET_NO = 999
REV_AT_EPOCH   = 587
BSTAR          = .20071171E-3
MEAN_MOTION_DOT = .763E-4
MEAN_MOTION_DDOT = 0

CCSDS_OMM_VERS = 2.0
CREATION_DATE  = 
ORIGINATOR     = 

OBJECT_NAME    = STARLINK-35631
OBJECT_ID      = 2025-237H
CENTER_NAME    = EARTH
REF_FRAME      = TEME
TIME_SYSTEM    = UTC
MEAN_ELEMENT_THEORY = SGP/SGP4

EPOCH          = 2025-11-20T08:00:01.999872
MEAN_MOTION    = 15.42872109
ECCENTRICITY   = .00003543
INCLINATION    = 53.1592
RA_OF_ASC_NODE = 192.9058
ARG_OF_PERICENTER = 64.8593
MEAN_ANOMALY   = 249.8173

EPHEMERIS_TYPE = 0
CLASSIFICATION_TYPE = U
NORAD_CAT_ID   = 66121
ELEMENT_SET_NO = 999
REV_AT_EPOCH   = 587
BSTAR          = -.60550379E-1
MEAN_MOTION_DOT = -.239934E-1
MEAN_MOTION_DDOT = 0

CCSDS_OMM_VERS = 2.0
CREATION_DATE  = 
ORIGINATOR     = 

OBJECT_NAME    = STARLINK-35653
OBJECT_ID      = 2025-237J
CENTER_NAME    = EARTH
REF_FRAME      = TEME
TIME_SYSTEM    = UTC
MEAN_ELEMENT_THEORY = SGP/SGP4

EPOCH          = 2025-11-18T23:35:16.912896
MEAN_MOTION    = 15.49372472
ECCENTRICITY   = .00011219
INCLINATION    = 53.1598
RA_OF_ASC_NODE = 199.3179
ARG_OF_PERICENTER = 96.3296
MEAN_ANOMALY   = 263.7841

EPHEMERIS_TYPE = 0
CLASSIFICATION_TYPE = U
NORAD_CAT_ID   = 66122
ELEMENT_SET_NO = 999
REV_AT_EPOCH   = 558
BSTAR          = .71267134E-3
MEAN_MOTION_DOT = .39477E-3
MEAN_MOTION_DDOT = 0

CCSDS_OMM_VERS = 2.0
CREATION_DATE  = 
ORIGINATOR     = 

OBJECT_NAME    = STARLINK-35628
OBJECT_ID      = 2025-237K
CENTER_NAME    = EARTH
REF_FRAME      = TEME
TIME_SYSTEM    = UTC
MEAN_ELEMENT_THEORY = SGP/SGP4

EPOCH          = 2025-11-19T08:52:10.562016
MEAN_MOTION    = 15.49294738
ECCENTRICITY   = .00014668
INCLINATION    = 53.1606
RA_OF_ASC_NODE = 197.4668
ARG_OF_PERICENTER = 84.3380
MEAN_ANOMALY   = 275.7796

EPHEMERIS_TYPE = 0
CLASSIFICATION_TYPE = U
NORAD_CAT_ID   = 66123
ELEMENT_SET_NO = 999
REV_AT_EPOCH   = 564
BSTAR          = .15865338E-2
MEAN_MOTION_DOT = .88752E-3
MEAN_MOTION_DDOT = 0

CCSDS_OMM_VERS = 2.0
CREATION_DATE  = 
ORIGINATOR     = 

OBJECT_NAME    = STARLINK-35645
OBJECT_ID      = 2025-237L
CENTER_NAME    = EARTH
REF_FRAME      = TEME
TIME_SYSTEM    = UTC
MEAN_ELEMENT_THEORY = SGP/SGP4

EPOCH          = 2025-11-19T08:51:41.567904
MEAN_MOTION    = 15.49282778
ECCENTRICITY   = .00016933
INCLINATION    = 53.1599
RA_OF_ASC_NODE = 197.4645
ARG_OF_PERICENTER = 88.5208
MEAN_ANOMALY   = 271.5995

EPHEMERIS_TYPE = 0
CLASSIFICATION_TYPE = U
NORAD_CAT_ID   = 66124
ELEMENT_SET_NO = 999
REV_AT_EPOCH   = 564
BSTAR          = .18924017E-2
MEAN_MOTION_DOT = .106143E-2
MEAN_MOTION_DDOT = 0

CCSDS_OMM_VERS = 2.0
CREATION_DATE  = 
ORIGINATOR     = 

OBJECT_NAME    = STARLINK-35649
OBJECT_ID      = 2025-237M
CENTER_NAME    = EARTH
REF_FRAME      = TEME
TIME_SYSTEM    = UTC
MEAN_ELEMENT_THEORY = SGP/SGP4

EPOCH          = 2025-11-19T08:51:11.518848
MEAN_MOTION    = 15.49292289
ECCENTRICITY   = .00014132
INCLINATION    = 53.1607
RA_OF_ASC_NODE = 197.4623
ARG_OF_PERICENTER = 91.9949
MEAN_ANOMALY   = 268.1222

EPHEMERIS_TYPE = 0
CLASSIFICATION_TYPE = U
NORAD_CAT_ID   = 66125
ELEMENT_SET_NO = 999
REV_AT_EPOCH   = 564
BSTAR          = .19760711E-2
MEAN_MOTION_DOT = .110961E-2
MEAN_MOTION_DDOT = 0

